[
    {
        "Altitude(m)": 713905.2761622381,
        "Argument of Periapsis(deg)": 0.005695060593313534,
        "Eccentricity": 0.0,
        "Inclination(deg)": 45.0,
        "Latitude(deg)": -35.50402979724775,
        "Longitude(deg)": 124.82859148333202,
        "Mean Anomaly(deg)": 234.85750832374043,
        "RAAN(deg)": -0.005375970729101967,
        "Satellite Name": "Constellation 1 14",
        "Satellite Number": 14,
        "Semi-Major Axis(m)": 7083131.272910544,
        "Time(s)": 95
    },
    {
        "Altitude(m)": 713917.5991389157,
        "Argument of Periapsis(deg)": 0.00575500859955894,
        "Eccentricity": 0.0,
        "Inclination(deg)": 45.0,
        "Latitude(deg)": -35.534298405569835,
        "Longitude(deg)": 124.88888912729891,
        "Mean Anomaly(deg)": 234.91820946399034,
        "RAAN(deg)": -0.005432559894671462,
        "Satellite Name": "Constellation 1 14",
        "Satellite Number": 14,
        "Semi-Major Axis(m)": 7083131.272910544,
        "Time(s)": 96
    },
    {
        "Altitude(m)": 713929.9101895171,
        "Argument of Periapsis(deg)": 0.005814956605804345,
        "Eccentricity": 0.0,
        "Inclination(deg)": 45.0,
        "Latitude(deg)": -35.56453239628816,
        "Longitude(deg)": 124.94923516507804,
        "Mean Anomaly(deg)": 234.97891060424018,
        "RAAN(deg)": -0.005489149060240956,
        "Satellite Name": "Constellation 1 14",
        "Satellite Number": 14,
        "Semi-Major Axis(m)": 7083131.272910544,
        "Time(s)": 97
    },
    {
        "Altitude(m)": 713942.2092697554,
        "Argument of Periapsis(deg)": 0.00587490461204975,
        "Eccentricity": 0.0,
        "Inclination(deg)": 45.0,
        "Latitude(deg)": -35.5947317059529,
        "Longitude(deg)": 125.00962946352752,
        "Mean Anomaly(deg)": 235.03961174449012,
        "RAAN(deg)": -0.005545738225810449,
        "Satellite Name": "Constellation 1 14",
        "Satellite Number": 14,
        "Semi-Major Axis(m)": 7083131.272910544,
        "Time(s)": 98
    },
    {
        "Altitude(m)": 713954.4963353798,
        "Argument of Periapsis(deg)": 0.005934852618295156,
        "Eccentricity": 0.0,
        "Inclination(deg)": 45.0,
        "Latitude(deg)": -35.62489627105495,
        "Longitude(deg)": 125.07007205738003,
        "Mean Anomaly(deg)": 235.10031288474002,
        "RAAN(deg)": -0.005602327391379944,
        "Satellite Name": "Constellation 1 14",
        "Satellite Number": 14,
        "Semi-Major Axis(m)": 7083131.272910544,
        "Time(s)": 99
    },
    {
        "Altitude(m)": 713966.7713421687,
        "Argument of Periapsis(deg)": 0.005994800624540561,
        "Eccentricity": 0.0,
        "Inclination(deg)": 45.0,
        "Latitude(deg)": -35.65502602802633,
        "Longitude(deg)": 125.13056298114478,
        "Mean Anomaly(deg)": 235.1610140249899,
        "RAAN(deg)": -0.005658916556949438,
        "Satellite Name": "Constellation 1 14",
        "Satellite Number": 14,
        "Semi-Major Axis(m)": 7083131.272910544,
        "Time(s)": 100
    },
    {
        "Altitude(m)": 713979.034245961,
        "Argument of Periapsis(deg)": 0.006054748630785968,
        "Eccentricity": 0.0,
        "Inclination(deg)": 45.0,
        "Latitude(deg)": -35.685120913240006,
        "Longitude(deg)": 125.19110226910615,
        "Mean Anomaly(deg)": 235.2217151652398,
        "RAAN(deg)": -0.005715505722518933,
        "Satellite Name": "Constellation 1 14",
        "Satellite Number": 14,
        "Semi-Major Axis(m)": 7083131.272910544,
        "Time(s)": 101
    },
    {
        "Altitude(m)": 713991.2850026051,
        "Argument of Periapsis(deg)": 0.006114696637031373,
        "Eccentricity": 0.0,
        "Inclination(deg)": 45.0,
        "Latitude(deg)": -35.715180863010595,
        "Longitude(deg)": 125.25168995532249,
        "Mean Anomaly(deg)": 235.28241630548973,
        "RAAN(deg)": -0.005772094888088427,
        "Satellite Name": "Constellation 1 14",
        "Satellite Number": 14,
        "Semi-Major Axis(m)": 7083131.272910544,
        "Time(s)": 102
    },
    {
        "Altitude(m)": 714003.5235680094,
        "Argument of Periapsis(deg)": 0.006174644643276778,
        "Eccentricity": 0.0,
        "Inclination(deg)": 45.0,
        "Latitude(deg)": -35.74520581359394,
        "Longitude(deg)": 125.31232607362432,
        "Mean Anomaly(deg)": 235.34311744573964,
        "RAAN(deg)": -0.005828684053657922,
        "Satellite Name": "Constellation 1 14",
        "Satellite Number": 14,
        "Semi-Major Axis(m)": 7083131.272910544,
        "Time(s)": 103
    },
    {
        "Altitude(m)": 714015.7498981176,
        "Argument of Periapsis(deg)": 0.006234592649522184,
        "Eccentricity": 0.0,
        "Inclination(deg)": 45.0,
        "Latitude(deg)": -35.77519570118783,
        "Longitude(deg)": 125.37301048951717,
        "Mean Anomaly(deg)": 235.4038185859895,
        "RAAN(deg)": -0.005885273219227416,
        "Satellite Name": "Constellation 1 14",
        "Satellite Number": 14,
        "Semi-Major Axis(m)": 7083131.272910544,
        "Time(s)": 104
    },
    {
        "Altitude(m)": 714027.9639489042,
        "Argument of Periapsis(deg)": 0.00629454065576759,
        "Eccentricity": 0.0,
        "Inclination(deg)": 45.0,
        "Latitude(deg)": -35.8051504619324,
        "Longitude(deg)": 125.43374357256687,
        "Mean Anomaly(deg)": 235.46451972623942,
        "RAAN(deg)": -0.0059418623847969105,
        "Satellite Name": "Constellation 1 14",
        "Satellite Number": 14,
        "Semi-Major Axis(m)": 7083131.272910544,
        "Time(s)": 105
    },
    {
        "Altitude(m)": 714040.1656763903,
        "Argument of Periapsis(deg)": 0.006354488662012995,
        "Eccentricity": 0.0,
        "Inclination(deg)": 45.0,
        "Latitude(deg)": -35.83507003190963,
        "Longitude(deg)": 125.49452518781749,
        "Mean Anomaly(deg)": 235.52522086648935,
        "RAAN(deg)": -0.0059984515503664045,
        "Satellite Name": "Constellation 1 14",
        "Satellite Number": 14,
        "Semi-Major Axis(m)": 7083131.272910544,
        "Time(s)": 106
    },
    {
        "Altitude(m)": 714052.355036634,
        "Argument of Periapsis(deg)": 0.006414436668258401,
        "Eccentricity": 0.0,
        "Inclination(deg)": 45.0,
        "Latitude(deg)": -35.86495434714405,
        "Longitude(deg)": 125.55535536817747,
        "Mean Anomaly(deg)": 235.58592200673922,
        "RAAN(deg)": -0.006055040715935899,
        "Satellite Name": "Constellation 1 14",
        "Satellite Number": 14,
        "Semi-Major Axis(m)": 7083131.272910544,
        "Time(s)": 107
    },
    {
        "Altitude(m)": 714064.5319857395,
        "Argument of Periapsis(deg)": 0.0064743846745038075,
        "Eccentricity": 0.0,
        "Inclination(deg)": 45.0,
        "Latitude(deg)": -35.894803343602995,
        "Longitude(deg)": 125.61623414632143,
        "Mean Anomaly(deg)": 235.64662314698913,
        "RAAN(deg)": -0.006111629881505393,
        "Satellite Name": "Constellation 1 14",
        "Satellite Number": 14,
        "Semi-Major Axis(m)": 7083131.272910544,
        "Time(s)": 108
    },
    {
        "Altitude(m)": 714076.6964798415,
        "Argument of Periapsis(deg)": 0.0065343326807492125,
        "Eccentricity": 0.0,
        "Inclination(deg)": 45.0,
        "Latitude(deg)": -35.9246169571967,
        "Longitude(deg)": 125.67716155468888,
        "Mean Anomaly(deg)": 235.70732428723898,
        "RAAN(deg)": -0.006168219047074888,
        "Satellite Name": "Constellation 1 14",
        "Satellite Number": 14,
        "Semi-Major Axis(m)": 7083131.272910544,
        "Time(s)": 109
    },
    {
        "Altitude(m)": 714088.8484751177,
        "Argument of Periapsis(deg)": 0.0065942806869946176,
        "Eccentricity": 0.0,
        "Inclination(deg)": 45.0,
        "Latitude(deg)": -35.95439512377861,
        "Longitude(deg)": 125.73813762548303,
        "Mean Anomaly(deg)": 235.76802542748896,
        "RAAN(deg)": -0.006224808212644382,
        "Satellite Name": "Constellation 1 14",
        "Satellite Number": 14,
        "Semi-Major Axis(m)": 7083131.272910544,
        "Time(s)": 110
    },
    {
        "Altitude(m)": 714100.9879277883,
        "Argument of Periapsis(deg)": 0.006654228693240024,
        "Eccentricity": 0.0,
        "Inclination(deg)": 45.0,
        "Latitude(deg)": -35.984137779145364,
        "Longitude(deg)": 125.79916222257229,
        "Mean Anomaly(deg)": 235.8287265677388,
        "RAAN(deg)": -0.006281397378213877,
        "Satellite Name": "Constellation 1 14",
        "Satellite Number": 14,
        "Semi-Major Axis(m)": 7083131.272910544,
        "Time(s)": 111
    },
    {
        "Altitude(m)": 714113.1147941109,
        "Argument of Periapsis(deg)": 0.006714176699485429,
        "Eccentricity": 0.0,
        "Inclination(deg)": 45.0,
        "Latitude(deg)": -36.01384485903772,
        "Longitude(deg)": 125.86023571387689,
        "Mean Anomaly(deg)": 235.8894277079887,
        "RAAN(deg)": -0.006337986543783371,
        "Satellite Name": "Constellation 1 14",
        "Satellite Number": 14,
        "Semi-Major Axis(m)": 7083131.272910544,
        "Time(s)": 112
    },
    {
        "Altitude(m)": 714125.2290303911,
        "Argument of Periapsis(deg)": 0.006774124705730835,
        "Eccentricity": 0.0,
        "Inclination(deg)": 45.0,
        "Latitude(deg)": -36.04351629913992,
        "Longitude(deg)": 125.92135796278609,
        "Mean Anomaly(deg)": 235.9501288482386,
        "RAAN(deg)": -0.006394575709352866,
        "Satellite Name": "Constellation 1 14",
        "Satellite Number": 14,
        "Semi-Major Axis(m)": 7083131.272910544,
        "Time(s)": 113
    }
]